ONEWEB-0080             
1 45426U 20020C   24352.45321597  .00000468  00000+0  12852-2 0  9994
2 45426  87.8898 130.0121 0001074 101.8277 258.2972 13.11417065231041
ONEWEB-0090             
1 45427U 20020D   24352.47016452  .00000303  00000+0  81926-3 0  9995
2 45427  87.8904 129.9999 0001464 101.2504 258.8788 13.11413887231016
ONEWEB-0061             
1 45428U 20020E   24352.42593571 -.00000365  00000+0 -10649-2 0  9996
2 45428  87.8899 129.9990 0001405  98.9077 261.2210 13.11418712230966
ONEWEB-0081             
1 45429U 20020F   24352.40742489 -.00000184  00000+0 -55381-3 0  9991
2 45429  87.8902 130.0220 0001441  92.0003 268.1290 13.11416141231076
ONEWEB-0069             
1 45430U 20020G   24352.62614649  .00000234  00000+0  62478-3 0  9992
2 45430  87.8899 129.9680 0001387 105.1073 255.0209 13.11415908231044
ONEWEB-0031             
1 45431U 20020H   24352.44473586  .00000291  00000+0  78586-3 0  9996
2 45431  87.8910 130.0229 0001492 102.7292 257.4003 13.11419086230996
ONEWEB-0027             
1 45432U 20020J   24352.41441532  .00000131  00000+0  30414-3 0  9991
2 45432  87.9095 114.7778 0001737 111.9479 248.1837 13.17647120234355
ONEWEB-0064             
1 45433U 20020K   24352.44303609  .00000483  00000+0  13268-2 0  9994
2 45433  87.8889 130.0233 0001721 112.4373 247.6937 13.11420933231026
